[{"OBJECT_NAME":"ONEWEB-0639","OBJECT_ID":"2023-029H","EPOCH":"2026-03-09T17:05:09.750624","MEAN_MOTION":13.19724682,"ECCENTRICITY":0.00022777,"INCLINATION":87.9226,"RA_OF_ASC_NODE":324.7977,"ARG_OF_PERICENTER":105.3247,"MEAN_ANOMALY":254.8138,"EPHEMERIS_TYPE":0,"CLASSIFICATION_TYPE":"U","NORAD_CAT_ID":55803,"ELEMENT_SET_NO":999,"REV_AT_EPOCH":14578,"BSTAR":0.00027256917,"MEAN_MOTION_DOT":1.22e-6,"MEAN_MOTION_DDOT":0},{"OBJECT_NAME":"DELTA 1 DEB","OBJECT_ID":"1973-086EP","EPOCH":"2026-03-09T22:25:39.258624","MEAN_MOTION":13.16908943,"ECCENTRICITY":0.02405736,"INCLINATION":102.0404,"RA_OF_ASC_NODE":68.2966,"ARG_OF_PERICENTER":186.6574,"MEAN_ANOMALY":204.016,"EPHEMERIS_TYPE":0,"CLASSIFICATION_TYPE":"U","NORAD_CAT_ID":7177,"ELEMENT_SET_NO":999,"REV_AT_EPOCH":49192,"BSTAR":0.0019260639,"MEAN_MOTION_DOT":8.03e-6,"MEAN_MOTION_DDOT":0}]
